[{"OBJECT_NAME":"STARLINK-36474","OBJECT_ID":"2026-003V","EPOCH":"2026-03-09T12:32:13.609536","MEAN_MOTION":15.27605333,"ECCENTRICITY":7.328e-5,"INCLINATION":42.9993,"RA_OF_ASC_NODE":228.4102,"ARG_OF_PERICENTER":250.2873,"MEAN_ANOMALY":109.79,"EPHEMERIS_TYPE":0,"CLASSIFICATION_TYPE":"U","NORAD_CAT_ID":67353,"ELEMENT_SET_NO":999,"REV_AT_EPOCH":879,"BSTAR":0.0015175353,"MEAN_MOTION_DOT":0.00041766,"MEAN_MOTION_DDOT":0},{"OBJECT_NAME":"CZ-4B R\/B","OBJECT_ID":"2010-051C","EPOCH":"2026-03-09T16:48:37.977120","MEAN_MOTION":15.17426017,"ECCENTRICITY":0.00758037,"INCLINATION":97.7974,"RA_OF_ASC_NODE":110.8647,"ARG_OF_PERICENTER":95.044,"MEAN_ANOMALY":265.9451,"EPHEMERIS_TYPE":0,"CLASSIFICATION_TYPE":"U","NORAD_CAT_ID":37181,"ELEMENT_SET_NO":999,"REV_AT_EPOCH":84355,"BSTAR":0.00029718512,"MEAN_MOTION_DOT":6.328e-5,"MEAN_MOTION_DDOT":0}]
